NORAD_CAT_ID,OBJECT_NAME,OBJECT_TYPE,EPOCH,MEAN_MOTION,ECCENTRICITY,INCLINATION,RA_OF_ASC_NODE,ARG_OF_PERICENTER,MEAN_ANOMALY,BSTAR,MEAN_MOTION_DOT,MEAN_MOTION_DDOT,TLE_LINE0,TLE_LINE1,TLE_LINE2,SEMIMAJOR_AXIS,PERIOD,APOGEE,PERIGEE,DECAYED
52839.0,STARLINK-4048,PAYLOAD,2023-06-18 17:55:36,15.08837597,0.000116,53.2157,180.5907,81.5443,278.5681,2.0255e-05,3.5e-07,0.0,0 STARLINK-4048,1 52839U 22062K   23169.74695244  .00000035  00000-0  20255-4 0  9997,2 52839  53.2157 180.5907 0001160  81.5443 278.5681 15.08837597 56073,6917.888,95.438,540.555,538.95,0.0
52839.0,STARLINK-4048,PAYLOAD,2023-06-19 09:49:27,15.08839093,0.0001142,53.2156,177.6165,81.6196,278.4925,6.9344e-05,8.16e-06,0.0,0 STARLINK-4048,1 52839U 22062K   23170.40935148  .00000816  00000-0  69344-4 0  9991,2 52839  53.2156 177.6165 0001142  81.6196 278.4925 15.08839093 55680,6917.883,95.438,540.538,538.958,0.0
52839.0,STARLINK-4048,PAYLOAD,2023-06-19 17:46:23,15.0883951,0.0001144,53.2157,176.1297,81.6496,278.4626,8.0401e-05,9.92e-06,0.0,0 STARLINK-4048,1 52839U 22062K   23170.74055126  .00000992  00000-0  80401-4 0  9999,2 52839  53.2157 176.1297 0001144  81.6496 278.4626 15.08839510 55734,6917.882,95.438,540.538,538.955,0.0
52839.0,STARLINK-4048,PAYLOAD,2023-06-20 00:07:56,15.08839899,0.0001149,53.2157,174.9402,81.2934,278.8189,0.00010573,1.395e-05,0.0,0 STARLINK-4048,1 52839U 22062K   23171.00551066  .00001395  00000-0  10573-3 0  9993,2 52839  53.2157 174.9402 0001149  81.2934 278.8189 15.08839899 56263,6917.881,95.438,540.541,538.951,0.0
52839.0,STARLINK-4048,PAYLOAD,2023-06-20 09:40:14,15.08842191,0.0001153,53.2156,173.1558,81.6943,278.418,0.00011919,1.61e-05,0.0,0 STARLINK-4048,1 52839U 22062K   23171.40294915  .00001610  00000-0  11919-3 0  9999,2 52839  53.2156 173.1558 0001153  81.6943 278.4180 15.08842191 55832,6917.874,95.437,540.536,538.941,0.0
52839.0,STARLINK-4048,PAYLOAD,2023-06-21 06:20:15,15.08842482,0.0001161,53.2156,169.2896,82.7366,277.3758,6.4196e-05,7.34e-06,0.0,0 STARLINK-4048,1 52839U 22062K   23172.26407035  .00000734  00000-0  64196-4 0  9995,2 52839  53.2156 169.2896 0001161  82.7366 277.3758 15.08842482 56454,6917.873,95.437,540.541,538.935,0.0
52839.0,STARLINK-4048,PAYLOAD,2023-06-22 09:21:49,15.08840978,0.0001189,53.2157,164.2343,86.0729,274.0399,2.111e-05,4.8e-07,0.0,0 STARLINK-4048,1 52839U 22062K   23173.39015099  .00000048  00000-0  21110-4 0  9992,2 52839  53.2157 164.2343 0001189  86.0729 274.0399 15.08840978 56629,6917.877,95.437,540.565,538.92,0.0
52839.0,STARLINK-4048,PAYLOAD,2023-06-23 15:34:08,15.08841763,0.0001193,53.2157,158.5848,85.0937,275.0191,6.3646e-05,7.25e-06,0.0,0 STARLINK-4048,1 52839U 22062K   23174.64870970  .00000725  00000-0  63646-4 0  9990,2 52839  53.2157 158.5848 0001193  85.0937 275.0191 15.08841763 56815,6917.875,95.437,540.565,538.915,0.0
52839.0,STARLINK-4048,PAYLOAD,2023-06-23 23:31:05,15.08832169,0.0001252,53.2161,157.0986,85.3208,274.7927,-2.5355e-06,-3.28e-06,0.0,0 STARLINK-4048,1 52839U 22062K   23174.97991986 -.00000328  00000-0 -25355-5 0  9994,2 52839  53.2161 157.0986 0001252  85.3208 274.7927 15.08832169 56865,6917.904,95.438,540.635,538.903,0.0
52839.0,STARLINK-4048,PAYLOAD,2023-06-25 02:32:37,15.08845634,0.0001143,53.216,152.0436,104.615,255.4969,7.3103e-05,8.76e-06,0.0,0 STARLINK-4048,1 52839U 22062K   23176.10599270  .00000876  00000-0  73103-4 0  9990,2 52839  53.2160 152.0436 0001143 104.6150 255.4969 15.08845634 57032,6917.863,95.437,540.519,538.937,0.0
52839.0,STARLINK-4048,PAYLOAD,2023-06-26 02:23:25,15.08835411,0.0001119,53.2157,147.5833,98.59,261.5219,8.4773e-05,1.061e-05,0.0,0 STARLINK-4048,1 52839U 22062K   23177.09960046  .00001061  00000-0  84773-4 0  9994,2 52839  53.2157 147.5833 0001119  98.5900 261.5219 15.08835411 57189,6917.894,95.438,540.534,538.985,0.0
52839.0,STARLINK-4048,PAYLOAD,2023-06-27 10:11:08,15.08844174,0.0001161,53.2164,141.6349,87.2941,272.8184,3.1735e-05,2.17e-06,0.0,0 STARLINK-4048,1 52839U 22062K   23178.42439871  .00000217  00000-0  31735-4 0  9991,2 52839  53.2164 141.6349 0001161  87.2941 272.8184 15.08844174 57385,6917.868,95.437,540.536,538.929,0.0
52839.0,STARLINK-4048,PAYLOAD,2023-06-29 03:31:09,15.08844557,0.0001245,53.2166,133.9024,89.8293,270.2841,9.8255e-05,1.276e-05,0.0,0 STARLINK-4048,1 52839U 22062K   23180.14663782  .00001276  00000-0  98255-4 0  9999,2 52839  53.2166 133.9024 0001245  89.8293 270.2841 15.08844557 57648,6917.866,95.437,540.593,538.87,0.0
52839.0,STARLINK-4048,PAYLOAD,2023-07-01 01:37:21,15.08836813,0.000121,53.2172,125.2811,96.9886,263.1243,-4.6526e-05,-1.028e-05,0.0,0 STARLINK-4048,1 52839U 22062K   23182.06760655 -.00001028  00000-0 -46526-4 0  9990,2 52839  53.2172 125.2811 0001210  96.9886 263.1243 15.08836813 57937,6917.89,95.438,540.592,538.918,0.0
52839.0,STARLINK-4048,PAYLOAD,2023-07-02 03:03:31,15.08836202,0.0001146,53.2175,120.5245,99.1914,260.9208,-1.2061e-05,-4.8e-06,0.0,0 STARLINK-4048,1 52839U 22062K   23183.12744984 -.00000480  00000-0 -12061-4 0  9993,2 52839  53.2175 120.5245 0001146  99.1914 260.9208 15.08836202 58090,6917.892,95.438,540.55,538.964,0.0
52839.0,STARLINK-4048,PAYLOAD,2023-07-03 04:29:41,15.08841699,0.0001212,53.218,115.767,102.7532,257.3596,0.00012065,1.633e-05,0.0,0 STARLINK-4048,1 52839U 22062K   23184.18728607  .00001633  00000-0  12065-3 0  9996,2 52839  53.2180 115.7670 0001212 102.7532 257.3596 15.08841699 58259,6917.875,95.437,540.579,538.902,0.0
52839.0,STARLINK-4048,PAYLOAD,2023-07-04 02:45:05,15.08837849,0.0001197,53.2176,111.6034,93.7082,266.4047,6.5655e-05,7.57e-06,0.0,0 STARLINK-4048,1 52839U 22062K   23185.11465192  .00000757  00000-0  65655-4 0  9997,2 52839  53.2176 111.6034 0001197  93.7082 266.4047 15.08837849 58393,6917.887,95.438,540.58,538.924,0.0
52839.0,STARLINK-4048,PAYLOAD,2023-07-05 12:08:11,15.08844148,0.000117,53.2175,105.3582,91.2044,268.9082,1.6377e-05,-2.7e-07,0.0,0 STARLINK-4048,1 52839U 22062K   23186.50568936 -.00000027  00000-0  16377-4 0  9999,2 52839  53.2175 105.3582 0001170  91.2044 268.9082 15.08844148 58602,6917.868,95.437,540.542,538.923,0.0
52839.0,STARLINK-4048,PAYLOAD,2023-07-07 03:52:49,15.08845513,0.0001273,53.2175,97.922,85.0185,275.0953,4.368e-05,4.07e-06,0.0,0 STARLINK-4048,1 52839U 22062K   23188.16168764  .00000407  00000-0  43680-4 0  9996,2 52839  53.2175  97.9220 0001273  85.0185 275.0953 15.08845513 58858,6917.864,95.437,540.609,538.848,0.0
52839.0,STARLINK-4048,PAYLOAD,2023-07-08 18:02:05,15.0883419,0.000123,53.2181,90.7876,87.8294,272.2839,-1.1261e-05,-4.67e-06,0.0,0 STARLINK-4048,1 52839U 22062K   23189.75145724 -.00000467  00000-0 -11261-4 0  9991,2 52839  53.2181  90.7876 0001230  87.8294 272.2839 15.08834190 59095,6917.898,95.438,540.614,538.912,0.0
52839.0,STARLINK-4048,PAYLOAD,2023-07-10 03:25:11,15.08843344,0.0001003,53.2179,84.5432,99.4471,260.6634,4.9056e-05,4.93e-06,0.0,0 STARLINK-4048,1 52839U 22062K   23191.14249359  .00000493  00000-0  49056-4 0  9996,2 52839  53.2179  84.5432 0001003  99.4471 260.6634 15.08843344 59304,6917.87,95.437,540.429,539.041,0.0
52839.0,STARLINK-4048,PAYLOAD,2023-07-12 01:31:22,15.08842082,8.78e-05,53.218,75.9187,91.9049,268.2043,3.5653e-05,2.8e-06,0.0,0 STARLINK-4048,1 52839U 22062K   23193.06345708  .00000280  00000-0  35653-4 0  9996,2 52839  53.2180  75.9187 0000878  91.9049 268.2043 15.08842082 59591,6917.874,95.437,540.346,539.132,0.0
52839.0,STARLINK-4048,PAYLOAD,2023-07-12 15:49:51,15.08837721,0.0001166,53.2177,73.2441,78.1373,281.9749,2.6546e-05,1.35e-06,0.0,0 STARLINK-4048,1 52839U 22062K   23193.65962199  .00000135  00000-0  26546-4 0  9990,2 52839  53.2177  73.2441 0001166  78.1373 281.9749 15.08837721 59688,6917.887,95.438,540.559,538.946,0.0
52839.0,STARLINK-4048,PAYLOAD,2023-07-13 22:02:10,15.0884578,0.0001164,53.218,67.592,98.1706,261.9419,2.7765e-05,1.54e-06,0.0,0 STARLINK-4048,1 52839U 22062K   23194.91817615  .00000154  00000-0  27765-4 0  9997,2 52839  53.2180  67.5920 0001164  98.1706 261.9419 15.08845780 59877,6917.863,95.437,540.533,538.922,0.0
52839.0,STARLINK-4048,PAYLOAD,2023-07-15 01:03:43,15.08851418,0.0001025,53.2179,62.537,87.6948,272.4161,0.00010305,1.353e-05,0.0,0 STARLINK-4048,1 52839U 22062K   23196.04424911  .00001353  00000-0  10305-3 0  9999,2 52839  53.2179  62.5370 0001025  87.6948 272.4161 15.08851418 60043,6917.845,95.437,540.42,539.001,0.0
52839.0,STARLINK-4048,PAYLOAD,2023-07-15 15:22:12,15.08838533,0.0001047,53.2183,59.8592,93.14,266.9712,-2.3526e-05,-6.62e-06,0.0,0 STARLINK-4048,1 52839U 22062K   23196.64042117 -.00000662  00000-0 -23526-4 0  9993,2 52839  53.2183  59.8592 0001047  93.1400 266.9712 15.08838533 60135,6917.885,95.438,540.474,539.026,0.0
52839.0,STARLINK-4048,PAYLOAD,2023-07-16 15:13:00,15.08833128,0.0001081,53.2181,55.4012,95.9553,264.1563,-0.00011143,-2.06e-05,0.0,0 STARLINK-4048,1 52839U 22062K   23197.63403004 -.00002060  00000-0 -11143-3 0  9994,2 52839  53.2181  55.4012 0001081  95.9553 264.1563 15.08833128 60284,6917.901,95.438,540.514,539.019,0.0
52839.0,STARLINK-4048,PAYLOAD,2023-07-16 21:34:32,15.08838692,0.0001085,53.2179,54.2125,95.8557,264.2559,-6.7129e-05,-1.356e-05,0.0,0 STARLINK-4048,1 52839U 22062K   23197.89898535 -.00001356  00000-0 -67129-4 0  9992,2 52839  53.2179  54.2125 0001085  95.8557 264.2559 15.08838692 60322,6917.884,95.438,540.5,538.999,0.0
52839.0,STARLINK-4048,PAYLOAD,2023-07-18 00:36:04,15.08851019,0.0001014,53.2186,49.1575,100.7269,259.3837,0.00022084,3.23e-05,0.0,0 STARLINK-4048,1 52839U 22062K   23199.02505132  .00003230  00000-0  22084-3 0  9998,2 52839  53.2186  49.1575 0001014 100.7269 259.3837 15.08851019 60490,6917.847,95.437,540.413,539.01,0.0
52839.0,STARLINK-4048,PAYLOAD,2023-07-18 22:51:29,15.08835972,9.4e-05,53.2178,44.9913,75.5428,284.5668,7.9719e-05,9.81e-06,0.0,0 STARLINK-4048,1 52839U 22062K   23199.95242815  .00000981  00000-0  79719-4 0  9994,2 52839  53.2178  44.9913 0000940  75.5428 284.5668 15.08835972 60631,6917.893,95.438,540.408,539.107,0.0
